STARLINK-30268          
1 57531U 23115L   24365.84683243 -.00000544  00000+0 -25237-4 0  9998
2 57531  43.0025 202.0893 0001278 271.1985  88.8711 15.02526049 77058
STARLINK-30251          
1 57532U 23115M   24365.90997165  .00000654  00000+0  63442-4 0  9997
2 57532  43.0011 201.6985 0001161 270.5718  89.4992 15.02540964 77060
STARLINK-30254          
1 57533U 23115N   24365.80247870  .00001033  00000+0  49326-4 0  9995
2 57533  43.0037  33.4348 0000409 265.6625  94.4179 15.25900142 79001
STARLINK-30264          
1 57534U 23115P   24365.56370910  .00009626  00000+0  37727-3 0  9998
2 57534  43.0036 137.0972 0002082 238.7952 121.2695 15.25915489 79000
STARLINK-30262          
1 57535U 23115Q   24365.54791282 -.00002329  00000+0 -48560-4 0  9999
2 57535  43.0014 130.5111 0001469 259.0602 101.0089 15.40673815 78908
STARLINK-30166          
1 57602U 23119A   24365.80196623  .00000075  00000+0  20630-4 0  9997
2 57602  43.0053 279.6054 0000949 147.7090 212.3811 15.02543637 77750
STARLINK-30223          
1 57603U 23119B   24365.05072992  .00000069  00000+0  20207-4 0  9990
2 57603  43.0027 283.4208 0001012 280.8315  79.2413 15.02542681 77696
STARLINK-30218          
1 57604U 23119C   24365.78864684  .00002919  00000+0  23107-3 0  9995
2 57604  43.0042 279.5068 0001784 259.1670 100.8971 15.02536443 77816
STARLINK-30138          
1 57605U 23119D   24365.78531353 -.00002666  00000+0 -18222-3 0  9993
2 57605  43.0018 279.4845 0001496 278.0945  81.9727 15.02555351 77814
STARLINK-30255          
1 57606U 23119E   24365.49165996  .00000455  00000+0  48719-4 0  9995
2 57606  43.0015 280.7231 0001067 277.9480  82.1241 15.02540027 77753
STARLINK-30252          
1 57607U 23119F   24365.79561000  .00001063  00000+0  93738-4 0  9992
2 57607  43.0000 266.8176 0000195 271.2323  88.8497 15.02531436 77968
STARLINK-30258          
1 57608U 23119G   24365.17813171  .00004554  00000+0  35180-3 0  9998
2 57608  43.0029 282.6614 0001041 270.3833  89.6890 15.02551879 77712
STARLINK-30174          
1 57609U 23119H   24365.83514991  .00001989  00000+0  16242-3 0  9997
2 57609  43.0029 278.9942 0001782 260.6461  99.4179 15.02508561 77827
STARLINK-30248          
1 57610U 23119J   24365.50609309 -.00004420  00000+0 -31244-3 0  9995
2 57610  43.0027 280.8269 0000924 275.5240  84.5497 15.02524398 77710
STARLINK-30052          
1 57611U 23119K   24365.76533977  .00004872  00000+0  37529-3 0  9992
2 57611  43.0027 279.3271 0001177 259.9895 100.0814 15.02556640 77790
STARLINK-30245          
1 57612U 23119L   24365.82849413  .00000371  00000+0  42524-4 0  9997
2 57612  42.9981 278.9412 0000669 284.8704  75.2064 15.02532648 77827
STARLINK-30041          
1 57613U 23119M   24365.82516475 -.00000535  00000+0 -24546-4 0  9995
2 57613  43.0027 278.9230 0001123 278.1971  81.8744 15.02532644 77821
STARLINK-30244          
1 57614U 23119N   24365.48943881  .00001720  00000+0  14235-3 0  9991
2 57614  43.0052 280.6994 0000977 262.8775  97.1957 15.02542653 77765
STARLINK-30246          
1 57615U 23119P   24365.81850439  .00006351  00000+0  48459-3 0  9995
2 57615  43.0022 278.8570 0001302 265.5305  94.5389 15.02549292 77827
STARLINK-30075          
1 57616U 23119Q   24365.81528551  .00002629  00000+0  20960-3 0  9994
2 57616  43.0049 279.7050 0001506 277.2259  82.8412 15.02534480 77813
STARLINK-30148          
1 57617U 23119R   24365.74546381  .00009850  00000+0  74265-3 0  9998
2 57617  43.0029 280.0424 0000860 257.3467 102.7280 15.02566195 77806
STARLINK-30249          
1 57618U 23119S   24365.47624422  .00000181  00000+0  28476-4 0  9994
2 57618  43.0025 281.4604 0001213 282.3924  77.6783 15.02531778 77703
STARLINK-30141          
1 57620U 23119U   24365.79753915  .00002055  00000+0  16724-3 0  9996
2 57620  43.0041 279.5719 0000887 248.0304 112.0445 15.02516166 77811
STARLINK-30150          
1 57621U 23119V   24365.46625984 -.00002466  00000+0 -16756-3 0  9998
2 57621  43.0067 281.3882 0001651 269.5483  90.5170 15.02536206 77764
STARLINK-30056          
1 57622U 23119W   24365.79530895  .00000894  00000+0  81262-4 0  9997
2 57622  43.0000 279.5328 0000671 252.8080 107.2689 15.02537742 77818
STARLINK-30100          
1 57623U 23119X   24365.79197301  .00002093  00000+0  16994-3 0  9991
2 57623  43.0028 279.5296 0001568 274.1427  85.9236 15.02534749 77815
STARLINK-30309          
1 57632U 23122A   24365.83163010  .00013199  00000+0  98984-3 0  9998
2 57632  43.0039 292.5020 0001401 250.7677 109.3014 15.02553700 76913
STARLINK-30306          
1 57633U 23122B   24365.82829437  .00002904  00000+0  22988-3 0  9993
2 57633  43.0017 292.4775 0001732 266.6106  93.4538 15.02553006 76919
STARLINK-30323          
1 57634U 23122C   24365.49054366  .00000645  00000+0  62768-4 0  9999
2 57634  43.0021 280.6577 0000976 277.6186  82.4546 15.02539050 77026
STARLINK-30329          
1 57635U 23122D   24365.82497581 -.00000928  00000+0 -53672-4 0  9997
2 57635  43.0011 292.4543 0000426 271.4700  88.6094 15.02535503 76916
STARLINK-30330          
1 57636U 23122E   24365.82164813 -.00000685  00000+0 -35647-4 0  9999
2 57636  43.0024 292.4266 0001177 265.6950  94.3758 15.02542005 76915
STARLINK-30311          
1 57637U 23122F   24365.08373573  .00000207  00000+0  30409-4 0  9992
2 57637  43.0042 296.3518 0001251 270.8147  89.2552 15.02528232 76807
STARLINK-30328          
1 57638U 23122G   24365.49719792  .00000453  00000+0  48597-4 0  9995
2 57638  43.0008 280.6484 0001194 274.4938  85.5768 15.02533248 77017
STARLINK-30326          
1 57639U 23122H   24365.84484462 -.00000511  00000+0 -22748-4 0  9995
2 57639  43.0050 291.7364 0001773 281.7846  78.2798 15.02516992 76925
STARLINK-30324          
1 57640U 23122J   24365.80833298  .00003243  00000+0  25505-3 0  9994
2 57640  43.0011 292.3275 0001646 284.8866  75.1794 15.02536721 76910
STARLINK-30312          
1 57641U 23122K   24365.80499016  .00003340  00000+0  26220-3 0  9994
2 57641  43.0038 292.3053 0000979 270.7059  89.3671 15.02534295 76915
STARLINK-30263          
1 57642U 23122L   24365.79834125 -.00000256  00000+0 -39232-5 0  9991
2 57642  42.9997 292.2540 0000787 278.3331  81.7422 15.02533193 76918
STARLINK-30280          
1 57643U 23122M   24365.78834315  .00006529  00000+0  49762-3 0  9996
2 57643  43.0030 292.1763 0000671 270.4538  89.6228 15.02562863 76916
STARLINK-30247          
1 57644U 23122N   24365.85816019  .00000076  00000+0  20672-4 0  9997
2 57644  43.0016 291.8421 0001406 272.0431  88.0250 15.02523186 76929
STARLINK-30277          
1 57645U 23122P   24365.94795245 -.00000468  00000+0 -80450-5 0  9993
2 57645  43.0018 237.2070 0002006 270.0578  90.0044 15.25896368 77579
STARLINK-30265          
1 57646U 23122Q   24365.80167325  .00000684  00000+0  65705-4 0  9994
2 57646  43.0045 292.2807 0000953 269.8714  90.2020 15.02530865 76911
STARLINK-30286          
1 57647U 23122R   24365.85150322  .00000463  00000+0  49381-4 0  9996
2 57647  43.0012 291.7939 0001052 276.5101  83.5621 15.02511608 76929
STARLINK-30243          
1 57648U 23122S   24365.50577769  .00004029  00000+0  31317-3 0  9998
2 57648  43.0065 293.4971 0001392 275.5449  84.5234 15.02537967 76864
STARLINK-30299          
1 57650U 23122U   24365.64872987  .00000357  00000+0  41476-4 0  9994
2 57650  43.0019 292.8517 0001087 274.4435  85.6283 15.02541290 76892
STARLINK-30294          
1 57651U 23122V   24365.17704625 -.00000835  00000+0 -46791-4 0  9994
2 57651  43.0041 282.6121 0001241 275.2498  84.8202 15.02517027 76978
STARLINK-30276          
1 57652U 23122W   24365.84152111 -.00003537  00000+0 -24710-3 0  9994
2 57652  43.0036 291.7165 0002017 271.0342  89.0269 15.02497203 76924
STARLINK-30289          
1 57653U 23122X   24365.77864754 -.00002102  00000+0 -14052-3 0  9995
2 57653  43.0023 279.3394 0001454 271.3481  88.7195 15.02556929 77069
STARLINK-30267          
1 57663U 23124A   24365.86257261 -.00000940  00000+0 -19643-4 0  9997
2 57663  53.1599  62.1172 0001043  84.8612 275.2508 15.30188203 77146
STARLINK-30302          
1 57664U 23124B   24365.91667824  .00202347  00000+0  37843-2 0  9997
2 57664  53.1599  58.4796 0007425   9.2865 250.1673 15.47479286  5898
STARLINK-30298          
1 57665U 23124C   24365.86468868  .00000413  00000+0  26074-4 0  9995
2 57665  53.1629  62.1532 0001377 107.0814 253.0338 15.30181727 77143
STARLINK-30301          
1 57666U 23124D   24364.74055853  .00002821  00000+0  21630-3 0  9995
2 57666  53.1618  96.4776 0001668  92.7574 267.3606 15.04934582 76543
STARLINK-30275          
1 57667U 23124E   24365.88362908  .00004331  00000+0  15829-3 0  9995
2 57667  53.1593  62.0672 0001320 133.5049 226.6062 15.30193659 77148
STARLINK-30278          
1 57668U 23124F   24365.45104648 -.00001893  00000+0 -45211-4 0  9995
2 57668  53.1595  65.0757 0000983 321.3067  38.7865 15.34202034 77065
STARLINK-30271          
1 57669U 23124G   24365.89207078 -.00000209  00000+0  50855-5 0  9995
2 57669  53.1599  62.0104 0001574  82.7066 277.4114 15.30188507 77149
STARLINK-30322          
1 57670U 23124H   24365.89781125 -.00001241  00000+0 -25784-4 0  9997
2 57670  53.1620  63.5781 0001729  90.9091 269.2110 15.34206675 77128
STARLINK-30296          
1 57671U 23124J   24365.86573806 -.00001738  00000+0 -46594-4 0  9993
2 57671  53.1596  62.0909 0001924 106.1489 253.9724 15.30179781 77141
STARLINK-30274          
1 57672U 23124K   24365.45802273  .00003883  00000+0  14316-3 0  9999
2 57672  53.1582  63.9214 0001947  83.8891 276.2332 15.30199536 77085
STARLINK-30316          
1 57673U 23124L   24352.54796343 -.00014666  00000+0 -42785-3 0  9990
2 57673  53.1613 124.0258 0001367 227.9885 132.1001 15.34100344 74801
STARLINK-30314          
1 57674U 23124M   24365.91667824  .00203715  00000+0  18374-2 0  9996
2 57674  53.1504  50.1980 0005904 343.3410  77.0425 15.66995406  5942
